NORAD_CAT_ID,OBJECT_NAME,OBJECT_TYPE,EPOCH,MEAN_MOTION,ECCENTRICITY,INCLINATION,RA_OF_ASC_NODE,ARG_OF_PERICENTER,MEAN_ANOMALY,BSTAR,MEAN_MOTION_DOT,MEAN_MOTION_DDOT,TLE_LINE0,TLE_LINE1,TLE_LINE2,SEMIMAJOR_AXIS,PERIOD,APOGEE,PERIGEE,DECAYED
52602.0,STARLINK-4012,PAYLOAD,2022-09-15 14:00:01,15.08845041,0.0001696,53.2148,225.3348,57.7841,307.2045,-0.0014832,-0.00023819,0.0,0 STARLINK-4012,1 52602U 22052E   22258.58334491 -.00023819  00000-0 -14832-2 0  9997,2 52602  53.2148 225.3348 0001696  57.7841 307.2045 15.08845041  1302,6917.865,95.437,540.903,538.557,0.0
52602.0,STARLINK-4012,PAYLOAD,2022-09-15 15:34:05,15.08828019,0.0001658,53.2158,225.0413,59.6775,300.4381,-3.165e-05,-7.92e-06,0.0,0 STARLINK-4012,1 52602U 22052E   22258.64867800 -.00000792  00000-0 -31650-4 0  9993,2 52602  53.2158 225.0413 0001658  59.6775 300.4381 15.08828019 19345,6917.917,95.438,540.929,538.635,0.0
52602.0,STARLINK-4012,PAYLOAD,2022-09-16 04:17:10,15.08833966,0.0001738,53.2157,222.6624,58.2422,301.8739,9.1182e-05,1.163e-05,0.0,0 STARLINK-4012,1 52602U 22052E   22259.17859398  .00001163  00000-0  91182-4 0  9992,2 52602  53.2157 222.6624 0001738  58.2422 301.8739 15.08833966 19422,6917.899,95.438,540.966,538.562,0.0
52602.0,STARLINK-4012,PAYLOAD,2022-09-16 07:27:57,15.088309699999998,0.0001732,53.2157,222.0681,58.5171,301.599,6.5819e-05,7.59e-06,0.0,0 STARLINK-4012,1 52602U 22052E   22259.31107779  .00000759  00000-0  65819-4 0  9995,2 52602  53.2157 222.0681 0001732  58.5171 301.5990 15.08830970 19874,6917.908,95.438,540.971,538.575,0.0
52602.0,STARLINK-4012,PAYLOAD,2022-09-17 04:07:59,15.08800413,0.0001882,53.2157,218.202,60.0295,300.0883,0.00039117,5.936e-05,0.0,0 STARLINK-4012,1 52602U 22052E   22260.17221640  .00005936  00000-0  39117-3 0  9998,2 52602  53.2157 218.2020 0001882  60.0295 300.0883 15.08800413 19570,6918.001,95.44,541.168,538.564,0.0
52602.0,STARLINK-4012,PAYLOAD,2022-09-17 07:18:45,15.08803673,0.0001889999999999,53.2158,217.6074,60.4141,299.7039,0.00040012,6.079e-05,0.0,0 STARLINK-4012,1 52602U 22052E   22260.30469710  .00006079  00000-0  40012-3 0  9990,2 52602  53.2158 217.6074 0001890  60.4141 299.7039 15.08803673 20026,6917.991,95.44,541.164,538.549,0.0
52602.0,STARLINK-4012,PAYLOAD,2022-09-17 21:37:13,15.08842047,0.0001769,53.2156,214.9312,59.6515,300.4652,7.6591e-05,9.31e-06,0.0,0 STARLINK-4012,1 52602U 22052E   22260.90084933  .00000931  00000-0  76591-4 0  9999,2 52602  53.2156 214.9312 0001769  59.6515 300.4652 15.08842047 19688,6917.874,95.437,540.9630000000002,538.515,0.0
52602.0,STARLINK-4012,PAYLOAD,2022-09-18 07:09:31,15.08849774,0.0001855,53.2156,213.1468,60.1198,299.9979,0.0001119,1.494e-05,0.0,0 STARLINK-4012,1 52602U 22052E   22261.29828262  .00001494  00000-0  11190-3 0  9991,2 52602  53.2156 213.1468 0001855  60.1198 299.9979 15.08849774 19746,6917.851,95.437,540.999,538.432,0.0
52602.0,STARLINK-4012,PAYLOAD,2022-09-18 13:31:03,15.08855619,0.0001825,53.2162,211.9578,60.8411,299.2764,0.0001473,2.058e-05,0.0,0 STARLINK-4012,1 52602U 22052E   22261.56323598  .00002058  00000-0  14730-3 0  9993,2 52602  53.2162 211.9578 0001825  60.8411 299.2764 15.08855619 20217,6917.833000000001,95.437,540.96,538.435,0.0
52602.0,STARLINK-4012,PAYLOAD,2022-09-19 07:00:18,15.08851926,0.0001875,53.2167,208.6871,61.4965,298.6216,0.00014867,2.079e-05,0.0,0 STARLINK-4012,1 52602U 22052E   22262.29187575  .00002079  00000-0  14867-3 0  9991,2 52602  53.2167 208.6871 0001875  61.4965 298.6216 15.08851926 20321,6917.844,95.437,541.006,538.4119999999998,0.0
52602.0,STARLINK-4012,PAYLOAD,2022-09-19 22:54:08,15.08856736,0.0001964,53.2161,205.7126,65.8678,294.2519,3.0925e-05,2.04e-06,0.0,0 STARLINK-4012,1 52602U 22052E   22262.95427004  .00000204  00000-0  30925-4 0  9990,2 52602  53.2161 205.7126 0001964  65.8678 294.2519 15.08856736 19997,6917.829000000002,95.436,541.053,538.336,0.0
52602.0,STARLINK-4012,PAYLOAD,2022-09-20 05:15:42,15.08846682,0.0001886999999999,53.2168,204.5232,58.7736,301.344,-5.8234e-05,-1.215e-05,0.0,0 STARLINK-4012,1 52602U 22052E   22263.21923685 -.00001215  00000-0 -58234-4 0  9994,2 52602  53.2168 204.5232 0001887  58.7736 301.3440 15.08846682 20038,6917.86,95.437,541.03,538.42,0.0
52602.0,STARLINK-4012,PAYLOAD,2022-09-21 05:06:28,15.08848071,0.00016,53.2169,200.0657,49.2887,310.8244,1.0798e-05,-1.16e-06,0.0,0 STARLINK-4012,1 52602U 22052E   22264.21282583 -.00000116  00000-0  10798-4 0  9991,2 52602  53.2169 200.0657 0001600  49.2887 310.8244 15.08848071 20183,6917.856,95.437,540.828,538.614,0.0
52602.0,STARLINK-4012,PAYLOAD,2022-09-22 01:46:27,15.08938941,0.0001631999999999,53.2161,196.1986,37.4531,322.6575,-0.0012758,-0.0002059,0.0,0 STARLINK-4012,1 52602U 22052E   22265.07392934 -.00020590  00000-0 -12758-2 0  9993,2 52602  53.2161 196.1986 0001632  37.4531 322.6575 15.08938941 20314,6917.578,95.431,540.572,538.314,0.0
52602.0,STARLINK-4012,PAYLOAD,2022-09-22 12:54:10,15.08845268,0.0001602,53.2164,194.1154,55.5769,304.5374,7.0996000000000014e-06,-1.75e-06,0.0,0 STARLINK-4012,1 52602U 22052E   22265.53762205 -.00000175  00000-0  70996-5 0  9993,2 52602  53.2164 194.1154 0001602  55.5769 304.5374 15.08845268 20385,6917.864000000001,95.437,540.8380000000002,538.621,0.0
52602.0,STARLINK-4012,PAYLOAD,2022-09-23 01:37:16,15.08830724,0.0001646,53.2164,191.7364,60.4598,299.6558,-1.3725e-05,-5.06e-06,0.0,0 STARLINK-4012,1 52602U 22052E   22266.06755238 -.00000506  00000-0 -13725-4 0  9995,2 52602  53.2164 191.7364 0001646  60.4598 299.6558 15.08830724 20462,6917.909000000002,95.438,540.9119999999998,538.635,0.0
52602.0,STARLINK-4012,PAYLOAD,2022-09-24 01:28:02,15.08878818,0.0001641,53.2166,187.2767,52.2882,307.8258,-0.00034227,-5.737e-05,0.0,0 STARLINK-4012,1 52602U 22052E   22267.06113769 -.00005737  00000-0 -34227-3 0  9993,2 52602  53.2166 187.2767 0001641  52.2882 307.8258 15.08878818 20613,6917.762,95.435,540.762,538.492,0.0
52602.0,STARLINK-4012,PAYLOAD,2022-09-25 04:29:36,15.08841294,0.000175,53.2172,182.2215,52.5455,307.5696,4.2553e-05,3.89e-06,0.0,0 STARLINK-4012,1 52602U 22052E   22268.18722298  .00000389  00000-0  42553-4 0  9998,2 52602  53.2172 182.2215 0001750  52.5455 307.5696 15.08841294 20782,6917.876,95.437,540.952,538.531,0.0
52602.0,STARLINK-4012,PAYLOAD,2022-09-25 10:51:09,15.08829703,0.0002063,53.2181,181.0335,58.7981,301.3213,-4.5205e-05,-1.007e-05,0.0,0 STARLINK-4012,1 52602U 22052E   22268.45219485 -.00001007  00000-0 -45205-4 0  9994,2 52602  53.2181 181.0335 0002063  58.7981 301.3213 15.08829703 20825,6917.9119999999975,95.438,541.2040000000002,538.35,0.0
52602.0,STARLINK-4012,PAYLOAD,2022-09-25 15:37:18,15.08837213,0.0002173,53.2159,180.1355,44.5122,315.6044,-5.0636e-05,-1.094e-05,0.0,0 STARLINK-4012,1 52602U 22052E   22268.65091023 -.00001094  00000-0 -50636-4 0  9992,2 52602  53.2159 180.1355 0002173  44.5122 315.6044 15.08837213 21280,6917.889,95.438,541.257,538.251,0.0
52602.0,STARLINK-4012,PAYLOAD,2022-09-26 10:41:56,15.08833428,0.0001651,53.2164,176.5716,47.3373,312.7759,-6.8855e-05,-1.384e-05,0.0,0 STARLINK-4012,1 52602U 22052E   22269.44579435 -.00001384  00000-0 -68855-4 0  9992,2 52602  53.2164 176.5716 0001651  47.3373 312.7759 15.08833428 21404,6917.9,95.438,540.908,538.623,0.0
52602.0,STARLINK-4012,PAYLOAD,2022-09-26 20:14:15,15.08834335,0.0001396999999999,53.2164,174.7865,53.0665,307.0455,-1.9027e-06,-3.18e-06,0.0,0 STARLINK-4012,1 52602U 22052E   22269.84323200 -.00000318  00000-0 -19027-5 0  9997,2 52602  53.2164 174.7865 0001397  53.0665 307.0455 15.08834335 21468,6917.898,95.438,540.729,538.7959999999998,0.0
52602.0,STARLINK-4012,PAYLOAD,2022-09-26 23:25:01,15.08837917,0.0001476999999999,53.2165,174.1924,53.5777,306.5351,3.1319e-05,2.1e-06,0.0,0 STARLINK-4012,1 52602U 22052E   22269.97570942  .00000210  00000-0  31319-4 0  9994,2 52602  53.2165 174.1924 0001477  53.5777 306.5351 15.08837917 21050,6917.887,95.438,540.774,538.73,0.0
52602.0,STARLINK-4012,PAYLOAD,2022-09-28 00:51:11,15.08842813,0.0001568,53.2165,169.4346,59.2516,300.8631,0.00014065,1.951e-05,0.0,0 STARLINK-4012,1 52602U 22052E   22271.03554465  .00001951  00000-0  14065-3 0  9997,2 52602  53.2165 169.4346 0001568  59.2516 300.8631 15.08842813 21217,6917.871999999999,95.437,540.822,538.6519999999998,0.0
52602.0,STARLINK-4012,PAYLOAD,2022-09-28 16:45:02,15.08844089,0.0001985,53.2172,166.4637,57.3736,302.7447,4.0435e-05,3.55e-06,0.0,0 STARLINK-4012,1 52602U 22052E   22271.69794950  .00000355  00000-0  40435-4 0  9992,2 52602  53.2172 166.4637 0001985  57.3736 302.7447 15.08844089 21742,6917.868,95.437,541.106,538.36,0.0
52602.0,STARLINK-4012,PAYLOAD,2022-09-29 02:17:22,15.08835267,0.000151,53.217,164.6759,62.9557,297.1589,-2.5066e-05,-6.87e-06,0.0,0 STARLINK-4012,1 52602U 22052E   22272.09539714 -.00000687  00000-0 -25066-4 0  9995,2 52602  53.2170 164.6759 0001510  62.9557 297.1589 15.08835267 21373,6917.895,95.438,540.804,538.715,0.0
52602.0,STARLINK-4012,PAYLOAD,2022-09-29 10:14:17,15.08838657,0.0001406,53.2169,163.1892,67.6308,292.4833,2.8165e-05,1.6e-06,0.0,0 STARLINK-4012,1 52602U 22052E   22272.42659346  .00000160  00000-0  28165-4 0  9993,2 52602  53.2169 163.1892 0001406  67.6308 292.4833 15.08838657 21852,6917.884,95.438,540.722,538.7769999999998,0.0
52602.0,STARLINK-4012,PAYLOAD,2022-09-29 16:35:49,15.0884699,0.0001453,53.2165,161.9993,62.3832,297.7307,-1.7236e-05,-5.62e-06,0.0,0 STARLINK-4012,1 52602U 22052E   22272.69154998 -.00000562  00000-0 -17236-4 0  9990,2 52602  53.2165 161.9993 0001453  62.3832 297.7307 15.08846990 21462,6917.859,95.437,540.729,538.719,0.0
52602.0,STARLINK-4012,PAYLOAD,2022-09-30 10:05:04,15.08843297,0.0001817,53.2169,158.7293,58.6254,301.4916,3.1541e-05,2.14e-06,0.0,0 STARLINK-4012,1 52602U 22052E   22273.42018901  .00000214  00000-0  31541-4 0  9992,2 52602  53.2169 158.7293 0001817  58.6254 301.4916 15.08843297 22000,6917.87,95.437,540.992,538.4780000000002,0.0
